HAWK-7A                 
1 56191U 23054P   26061.67354003  .00007463  00000+0  29182-3 0  9993
2 56191  97.2850 311.7201 0004565  65.0983 295.0730 15.26121415160776
HAWK-7B                 
1 56193U 23054R   26061.73898744  .00006421  00000+0  25149-3 0  9999
2 56193  97.2883 310.0066 0004024  74.3465 285.8218 15.26123826160780
HAWK-7C                 
1 56200U 23054Y   26061.73884163  .00004234  00000+0  16701-3 0  9992
2 56200  97.2858 310.8107 0004052  66.2025 293.9638 15.26084319160787
