[{"OBJECT_NAME":"HAWK-7A","OBJECT_ID":"2023-054P","EPOCH":"2026-03-02T16:09:53.858592","MEAN_MOTION":15.26121415,"ECCENTRICITY":0.0004565,"INCLINATION":97.285,"RA_OF_ASC_NODE":311.7201,"ARG_OF_PERICENTER":65.0983,"MEAN_ANOMALY":295.073,"EPHEMERIS_TYPE":0,"CLASSIFICATION_TYPE":"U","NORAD_CAT_ID":56191,"ELEMENT_SET_NO":999,"REV_AT_EPOCH":16077,"BSTAR":0.00029182,"MEAN_MOTION_DOT":7.463e-5,"MEAN_MOTION_DDOT":0},{"OBJECT_NAME":"HAWK-7B","OBJECT_ID":"2023-054R","EPOCH":"2026-03-02T17:44:08.514816","MEAN_MOTION":15.26123826,"ECCENTRICITY":0.0004024,"INCLINATION":97.2883,"RA_OF_ASC_NODE":310.0066,"ARG_OF_PERICENTER":74.3465,"MEAN_ANOMALY":285.8218,"EPHEMERIS_TYPE":0,"CLASSIFICATION_TYPE":"U","NORAD_CAT_ID":56193,"ELEMENT_SET_NO":999,"REV_AT_EPOCH":16078,"BSTAR":0.00025149,"MEAN_MOTION_DOT":6.421e-5,"MEAN_MOTION_DDOT":0},{"OBJECT_NAME":"HAWK-7C","OBJECT_ID":"2023-054Y","EPOCH":"2026-03-02T17:43:55.916832","MEAN_MOTION":15.26084319,"ECCENTRICITY":0.0004052,"INCLINATION":97.2858,"RA_OF_ASC_NODE":310.8107,"ARG_OF_PERICENTER":66.2025,"MEAN_ANOMALY":293.9638,"EPHEMERIS_TYPE":0,"CLASSIFICATION_TYPE":"U","NORAD_CAT_ID":56200,"ELEMENT_SET_NO":999,"REV_AT_EPOCH":16078,"BSTAR":0.00016701,"MEAN_MOTION_DOT":4.234e-5,"MEAN_MOTION_DDOT":0}]
